NORAD_CAT_ID,OBJECT_NAME,OBJECT_TYPE,EPOCH,MEAN_MOTION,ECCENTRICITY,INCLINATION,RA_OF_ASC_NODE,ARG_OF_PERICENTER,MEAN_ANOMALY,BSTAR,MEAN_MOTION_DOT,MEAN_MOTION_DDOT,TLE_LINE0,TLE_LINE1,TLE_LINE2,SEMIMAJOR_AXIS,PERIOD,APOGEE,PERIGEE,DECAYED
53139.0,STARLINK-4185,PAYLOAD,2023-11-06 11:51:42,15.08776483,0.0001525,53.2175,48.7526,63.9571,296.1578,-0.00099131,-0.00016003,0.0,0 STARLINK-4185,1 53139U 22083H   23310.49424088 -.00016003  00000-0 -99131-3 0  9992,2 53139  53.2175  48.7526 0001525  63.9571 296.1578 15.08776483 72895,6918.075,95.442,540.995,538.885,0.0
53139.0,STARLINK-4185,PAYLOAD,2023-11-06 13:27:04,15.0879331,0.0001235,53.2165,48.4545,86.404,273.7093,-0.00071601,-0.0001165,0.0,0 STARLINK-4185,1 53139U 22083H   23310.56047385 -.00011650  00000-0 -71601-3 0  9996,2 53139  53.2165  48.4545 0001235  86.4040 273.7093 15.08793310 72274,6918.023,95.441,540.742,539.034,0.0
53139.0,STARLINK-4185,PAYLOAD,2023-11-07 10:07:06,15.08796857,0.0001391,53.2186,44.5872,93.1266,266.9885,-0.00049551,-8.156e-05,0.0,0 STARLINK-4185,1 53139U 22083H   23311.42160830 -.00008156  00000-0 -49551-3 0  9999,2 53139  53.2186  44.5872 0001391  93.1266 266.9885 15.08796857 73032,6918.012,95.44,540.84,538.915,0.0
53139.0,STARLINK-4185,PAYLOAD,2023-11-07 13:17:52,15.08819816,0.0001245,53.2173,43.9935,77.028,283.0851,-0.00020114,-3.486e-05,0.0,0 STARLINK-4185,1 53139U 22083H   23311.55408267 -.00003486  00000-0 -20114-3 0  9997,2 53139  53.2173  43.9935 0001245  77.0280 283.0851 15.08819816 72422,6917.942,95.439,540.668,538.946,0.0
53139.0,STARLINK-4185,PAYLOAD,2023-11-08 11:33:15,15.08854076,0.0001089,53.2179,39.8295,89.6885,270.4232,0.00041844,6.38e-05,0.0,0 STARLINK-4185,1 53139U 22083H   23312.48143107  .00006380  00000-0  41844-3 0  9996,2 53139  53.2179  39.8295 0001089  89.6885 270.4232 15.08854076 73192,6917.837,95.437,540.456,538.949,0.0
53139.0,STARLINK-4185,PAYLOAD,2023-11-08 22:40:57,15.08825497,0.0001272,53.2202,37.7544,89.9131,270.2006,0.00056122,8.652e-05,0.0,0 STARLINK-4185,1 53139U 22083H   23312.94511555  .00008652  00000-0  56122-3 0  9992,2 53139  53.2202  37.7544 0001272  89.9131 270.2006 15.08825497 72634,6917.925,95.438,540.67,538.91,0.0
53139.0,STARLINK-4185,PAYLOAD,2023-11-09 12:59:25,15.08847063,0.0001378,53.2199,35.0809,109.3711,250.743,0.00030227,4.527e-05,0.0,0 STARLINK-4185,1 53139U 22083H   23313.54127269  .00004527  00000-0  30227-3 0  9999,2 53139  53.2199  35.0809 0001378 109.3711 250.7430 15.08847063 72729,6917.859,95.437,540.677,538.771,0.0
53139.0,STARLINK-4185,PAYLOAD,2023-11-10 00:07:08,15.08840714,9.34e-05,53.2193,32.9892,101.1135,258.9963,4.4797e-05,4.25e-06,0.0,0 STARLINK-4185,1 53139U 22083H   23314.00495957  .00000425  00000-0  44797-4 0  9994,2 53139  53.2193  32.9892 0000934 101.1135 258.9963 15.08840714 73423,6917.878,95.438,540.389,539.097,0.0
53139.0,STARLINK-4185,PAYLOAD,2023-11-10 12:50:13,15.08847657,0.000147,53.2184,30.6167,68.3833,291.7316,-0.0001012,-1.899e-05,0.0,0 STARLINK-4185,1 53139U 22083H   23314.53487978 -.00001899  00000-0 -10120-3 0  9996,2 53139  53.2184  30.6167 0001470  68.3833 291.7316 15.08847657 72876,6917.857,95.437,540.739,538.705,0.0
53139.0,STARLINK-4185,PAYLOAD,2023-11-11 11:05:36,15.088541,0.0001326,53.2179,26.451,87.5764,272.538,3.5461e-05,2.77e-06,0.0,0 STARLINK-4185,1 53139U 22083H   23315.46222743  .00000277  00000-0  35461-4 0  9999,2 53139  53.2179  26.4510 0001326  87.5764 272.5380 15.08854100 73646,6917.837,95.437,540.62,538.785,0.0
53139.0,STARLINK-4185,PAYLOAD,2023-11-11 12:40:59,15.08855766,0.000123,53.2181,26.1537,86.3227,273.7906,6.5452e-05,7.54e-06,0.0,0 STARLINK-4185,1 53139U 22083H   23315.52846529  .00000754  00000-0  65452-4 0  9993,2 53139  53.2181  26.1537 0001230  86.3227 273.7906 15.08855766 73028,6917.832,95.437,540.548,538.846,0.0
53139.0,STARLINK-4185,PAYLOAD,2023-11-12 10:56:24,15.08837528,0.0001928,53.2198,21.9908,115.6713,244.4479,0.00014013,1.943e-05,0.0,0 STARLINK-4185,1 53139U 22083H   23316.45583506  .00001943  00000-0  14013-3 0  9996,2 53139  53.2198  21.9908 0001928 115.6713 244.4479 15.08837528 73791,6917.888,95.438,541.087,538.419,0.0
53139.0,STARLINK-4185,PAYLOAD,2023-11-13 10:47:09,15.08859088,0.0001533,53.2194,17.53,88.4118,271.7049,9.5501e-05,1.233e-05,0.0,0 STARLINK-4185,1 53139U 22083H   23317.44942044  .00001233  00000-0  95501-4 0  9996,2 53139  53.2194  17.5300 0001533  88.4118 271.7049 15.08859088 73940,6917.822,95.436,540.748,538.627,0.0
53139.0,STARLINK-4185,PAYLOAD,2023-11-14 04:16:25,15.08827865,8.46e-05,53.2195,14.2583,46.481,313.6252,-0.00016892,-2.974e-05,0.0,0 STARLINK-4185,1 53139U 22083H   23318.17807669 -.00002974  00000-0 -16892-3 0  9990,2 53139  53.2195  14.2583 0000846  46.4810 313.6252 15.08827865 74050,6917.917,95.438,540.368,539.197,0.0
53139.0,STARLINK-4185,PAYLOAD,2023-11-14 10:37:58,15.08835361,0.0001407,53.2182,13.071,88.7219,271.3934,-4.032e-05,-9.29e-06,0.0,0 STARLINK-4185,1 53139U 22083H   23318.44303358 -.00000929  00000-0 -40320-4 0  9998,2 53139  53.2182  13.0710 0001407  88.7219 271.3934 15.08835361 74092,6917.895,95.438,540.733,538.786,0.0
53139.0,STARLINK-4185,PAYLOAD,2023-11-15 10:28:44,15.08843838,0.0001684,53.2181,8.6128,101.1288,258.9894,-8.1966e-07,-3.01e-06,0.0,0 STARLINK-4185,1 53139U 22083H   23319.43663094 -.00000301  00000-0 -81966-6 0  9991,2 53139  53.2181   8.6128 0001684 101.1288 258.9894 15.08843838 74248,6917.869,95.437,540.899,538.569,0.0
53139.0,STARLINK-4185,PAYLOAD,2023-11-15 20:01:03,15.08839946,0.0001646,53.2176,6.8275,107.6828,252.4344,-2.0406e-05,-6.13e-06,0.0,0 STARLINK-4185,1 53139U 22083H   23319.83407332 -.00000613  00000-0 -20406-4 0  9992,2 53139  53.2176   6.8275 0001646 107.6828 252.4344 15.08839946 73674,6917.881,95.438,540.884,538.607,0.0
53139.0,STARLINK-4185,PAYLOAD,2023-11-16 02:22:36,15.08835892,0.000166,53.2172,5.637,96.4488,263.6694,0.0002393,3.522e-05,0.0,0 STARLINK-4185,1 53139U 22083H   23320.09903804  .00003522  00000-0  23930-3 0  9991,2 53139  53.2172   5.6370 0001660  96.4488 263.6694 15.08835892 74349,6917.893,95.438,540.906,538.61,0.0
53139.0,STARLINK-4185,PAYLOAD,2023-11-16 08:44:09,15.0883565,0.000163,53.2172,4.4473,95.6822,264.4356,0.00013706,1.894e-05,0.0,0 STARLINK-4185,1 53139U 22083H   23320.36399842  .00001894  00000-0  13706-3 0  9992,2 53139  53.2172   4.4473 0001630  95.6822 264.4356 15.08835650 73750,6917.894,95.438,540.886,538.631,0.0
53139.0,STARLINK-4185,PAYLOAD,2023-11-16 19:51:51,15.08841017,0.0001665,53.2181,2.3657,94.3084,265.8098,0.0001418,1.969e-05,0.0,0 STARLINK-4185,1 53139U 22083H   23320.82767679  .00001969  00000-0  14180-3 0  9990,2 53139  53.2181   2.3657 0001665  94.3084 265.8098 15.08841017 73825,6917.877,95.437,540.894,538.59,0.0
53139.0,STARLINK-4185,PAYLOAD,2023-11-17 11:45:42,15.08841999,0.0001814,53.2188,359.3923,90.4191,269.7009,8.1826e-05,1.014e-05,0.0,0 STARLINK-4185,1 53139U 22083H   23321.49007774  .00001014  00000-0  81826-4 0  9990,2 53139  53.2188 359.3923 0001814  90.4191 269.7009 15.08841999 74550,6917.874,95.437,540.994,538.484,0.0
53139.0,STARLINK-4185,PAYLOAD,2023-11-18 10:01:06,15.08842509,0.0001804,53.2195,355.2298,87.4809,272.639,0.00012075,1.634e-05,0.0,0 STARLINK-4185,1 53139U 22083H   23322.41744054  .00001634  00000-0  12075-3 0  9999,2 53139  53.2195 355.2298 0001804  87.4809 272.6390 15.08842509 74069,6917.873,95.437,540.986,538.49,0.0
53139.0,STARLINK-4185,PAYLOAD,2023-11-19 08:16:30,15.08835774,0.0001566,53.2185,351.0667,92.1721,267.945,0.00023108,3.391e-05,0.0,0 STARLINK-4185,1 53139U 22083H   23323.34480323  .00003391  00000-0  23108-3 0  9999,2 53139  53.2185 351.0667 0001566  92.1721 267.9450 15.08835774 74838,6917.893,95.438,540.842,538.675,0.0
53139.0,STARLINK-4185,PAYLOAD,2023-11-19 19:24:12,15.08843949,0.0001522,53.2182,348.984,99.148,260.9685,7.8692e-05,9.65e-06,0.0,0 STARLINK-4185,1 53139U 22083H   23323.80847818  .00000965  00000-0  78692-4 0  9999,2 53139  53.2182 348.9840 0001522  99.1480 260.9685 15.08843949 74278,6917.868,95.437,540.786,538.68,0.0
53139.0,STARLINK-4185,PAYLOAD,2023-11-20 08:07:17,15.08850194,0.0001484,53.2179,346.604,93.7754,266.3408,0.00011946,1.614e-05,0.0,0 STARLINK-4185,1 53139U 22083H   23324.33839198  .00001614  00000-0  11946-3 0  9990,2 53139  53.2179 346.6040 0001484  93.7754 266.3408 15.08850194 74983,6917.849,95.437,540.741,538.688,0.0
53139.0,STARLINK-4185,PAYLOAD,2023-11-20 12:53:26,15.08854864,0.0001518,53.218,345.7119,93.7254,266.3912,0.00015643,2.203e-05,0.0,0 STARLINK-4185,1 53139U 22083H   23324.53710739  .00002203  00000-0  15643-3 0  9994,2 53139  53.2180 345.7119 0001518  93.7254 266.3912 15.08854864 74387,6917.835,95.437,540.75,538.65,0.0
53139.0,STARLINK-4185,PAYLOAD,2023-11-20 19:14:59,15.08839912,0.0001319,53.2186,344.5216,106.5883,253.5254,6.6257e-05,7.67e-06,0.0,0 STARLINK-4185,1 53139U 22083H   23324.80207753  .00000767  00000-0  66257-4 0  9992,2 53139  53.2186 344.5216 0001319 106.5883 253.5254 15.08839912 75057,6917.881,95.438,540.658,538.833,0.0
53139.0,STARLINK-4185,PAYLOAD,2023-11-21 11:08:50,15.08848708,0.0001545,53.2174,341.5486,96.5297,263.5871,0.00016976,2.415e-05,0.0,0 STARLINK-4185,1 53139U 22083H   23325.46447272  .00002415  00000-0  16976-3 0  9991,2 53139  53.2174 341.5486 0001545  96.5297 263.5871 15.08848708 74528,6917.854,95.437,540.788,538.65,0.0
53139.0,STARLINK-4185,PAYLOAD,2023-11-22 01:27:18,15.08841905,0.0001621,53.2171,338.8711,98.6953,261.4223,3.2053e-05,2.22e-06,0.0,0 STARLINK-4185,1 53139U 22083H   23326.06063609  .00000222  00000-0  32053-4 0  9995,2 53139  53.2171 338.8711 0001621  98.6953 261.4223 15.08841905 75242,6917.875,95.437,540.861,538.618,0.0
53139.0,STARLINK-4185,PAYLOAD,2023-11-22 07:48:51,15.08848558,0.0001578,53.2175,337.6842,95.8343,264.2829,5.008e-05,5.09e-06,0.0,0 STARLINK-4185,1 53139U 22083H   23326.32559244  .00000509  00000-0  50080-4 0  9997,2 53139  53.2175 337.6842 0001578  95.8343 264.2829 15.08848558 74659,6917.854,95.437,540.811,538.628,0.0
